NORAD_CAT_ID,OBJECT_NAME,OBJECT_TYPE,EPOCH,MEAN_MOTION,ECCENTRICITY,INCLINATION,RA_OF_ASC_NODE,ARG_OF_PERICENTER,MEAN_ANOMALY,BSTAR,MEAN_MOTION_DOT,MEAN_MOTION_DDOT,TLE_LINE0,TLE_LINE1,TLE_LINE2,SEMIMAJOR_AXIS,PERIOD,APOGEE,PERIGEE,DECAYED
52272.0,STARLINK-3781,PAYLOAD,2024-03-04 11:38:13,15.08854739,0.0001174,53.2174,169.6244,86.8524,273.2603,0.00014662,2.047e-05,0.0,0 STARLINK-3781,1 52272U 22041M   24064.48487672  .00002047  00000-0  14662-3 0  9994,2 52272  53.2174 169.6244 0001174  86.8524 273.2603 15.08854739104604,6917.835,95.437,540.512,538.888,0.0
52272.0,STARLINK-3781,PAYLOAD,2024-03-04 13:13:36,15.08855532,0.0001201,53.2163,169.3265,88.0394,272.0736,0.00014379,2.002e-05,0.0,0 STARLINK-3781,1 52272U 22041M   24064.55111512  .00002002  00000-0  14379-3 0  9995,2 52272  53.2163 169.3265 0001201  88.0394 272.0736 15.08855532103382,6917.833,95.437,540.529,538.867,0.0
52272.0,STARLINK-3781,PAYLOAD,2024-03-05 13:04:24,15.08840524,0.0001223,53.2164,164.8637,92.1518,267.9614,-5.4958e-05,-1.162e-05,0.0,0 STARLINK-3781,1 52272U 22041M   24065.54472887 -.00001162  00000-0 -54958-4 0  9996,2 52272  53.2164 164.8637 0001223  92.1518 267.9614 15.08840524103534,6917.879,95.438,540.59,538.898,0.0
52272.0,STARLINK-3781,PAYLOAD,2024-03-06 12:55:11,15.0884277,0.0001529,53.2175,160.4036,110.3137,249.802,-0.00013617,-2.455e-05,0.0,0 STARLINK-3781,1 52272U 22041M   24066.53833019 -.00002455  00000-0 -13617-3 0  9996,2 52272  53.2175 160.4036 0001529 110.3137 249.8020 15.08842770103681,6917.872,95.437,540.795,538.679,0.0
52272.0,STARLINK-3781,PAYLOAD,2024-03-07 12:45:59,15.08832272,0.0001498,53.2174,155.9466,108.7595,251.3559,6.9245e-05,8.14e-06,0.0,0 STARLINK-3781,1 52272U 22041M   24067.53193619  .00000814  00000-0  69245-4 0  9996,2 52272  53.2174 155.9466 0001498 108.7595 251.3559 15.08832272103838,6917.904,95.438,540.805,538.733,0.0
52272.0,STARLINK-3781,PAYLOAD,2024-03-08 12:36:46,15.08839784,0.0001564,53.2181,151.4864,107.4684,252.6479,0.00014519,2.023e-05,0.0,0 STARLINK-3781,1 52272U 22041M   24068.52553450  .00002023  00000-0  14519-3 0  9996,2 52272  53.2181 151.4864 0001564 107.4684 252.6479 15.08839784103984,6917.881,95.438,540.828,538.664,0.0
52272.0,STARLINK-3781,PAYLOAD,2024-03-08 22:09:05,15.08841282,0.0001771,53.2168,149.7012,135.5109,224.6026,-3.9131e-05,-9.11e-06,0.0,0 STARLINK-3781,1 52272U 22041M   24068.92297720 -.00000911  00000-0 -39131-4 0  9999,2 52272  53.2168 149.7012 0001771 135.5109 224.6026 15.08841282104049,6917.876,95.437,540.967,538.516,0.0
52272.0,STARLINK-3781,PAYLOAD,2024-03-09 12:27:33,15.08836939,0.000166,53.2182,147.0266,107.514,252.6033,6.4295e-05,7.35e-06,0.0,0 STARLINK-3781,1 52272U 22041M   24069.51914253  .00000735  00000-0  64295-4 0  9993,2 52272  53.2182 147.0266 0001660 107.5140 252.6033 15.08836939105366,6917.89,95.438,540.903,538.606,0.0
52272.0,STARLINK-3781,PAYLOAD,2024-03-09 14:02:56,15.08838235,0.0001662,53.2182,146.7284,103.9146,256.2031,6.9391e-05,8.16e-06,0.0,0 STARLINK-3781,1 52272U 22041M   24069.58538138  .00000816  00000-0  69391-4 0  9996,2 52272  53.2182 146.7284 0001662 103.9146 256.2031 15.08838235104144,6917.886,95.438,540.901,538.601,0.0
52272.0,STARLINK-3781,PAYLOAD,2024-03-09 21:59:52,15.08835468,0.0001538,53.2174,145.2397,91.0695,269.0473,3.6982e-05,3.01e-06,0.0,0 STARLINK-3781,1 52272U 22041M   24069.91658490  .00000301  00000-0  36982-4 0  9996,2 52272  53.2174 145.2397 0001538  91.0695 269.0473 15.08835468104194,6917.894,95.438,540.823,538.695,0.0
52272.0,STARLINK-3781,PAYLOAD,2024-03-10 12:18:21,15.08833287,0.0001688,53.2166,142.5632,88.0843,272.0342,-5.6092e-05,-1.18e-05,0.0,0 STARLINK-3781,1 52272U 22041M   24070.51275165 -.00001180  00000-0 -56092-4 0  9990,2 52272  53.2166 142.5632 0001688  88.0843 272.0342 15.08833287105517,6917.901,95.438,540.934,538.598,0.0
52272.0,STARLINK-3781,PAYLOAD,2024-03-10 13:53:44,15.0883406,0.0001691,53.2159,142.2645,84.0513,276.0672,-5.1779e-05,-1.112e-05,0.0,0 STARLINK-3781,1 52272U 22041M   24070.57899117 -.00001112  00000-0 -51779-4 0  9997,2 52272  53.2159 142.2645 0001691  84.0513 276.0672 15.08834060104298,6917.899,95.438,540.933,538.594,0.0
52272.0,STARLINK-3781,PAYLOAD,2024-03-10 21:50:39,15.0884261,0.0001665,53.2166,140.778,85.7571,274.3612,-1.2161e-05,-4.82e-06,0.0,0 STARLINK-3781,1 52272U 22041M   24070.91018476 -.00000482  00000-0 -12161-4 0  9997,2 52272  53.2166 140.7780 0001665  85.7571 274.3612 15.08842610104343,6917.872,95.437,540.889,538.586,0.0
52272.0,STARLINK-3781,PAYLOAD,2024-03-11 04:12:12,15.08839072,0.0001671,53.2172,139.5876,87.345,272.7733,0.00011146,1.486e-05,0.0,0 STARLINK-3781,1 52272U 22041M   24071.17514385  .00001486  00000-0  11146-3 0  9990,2 52272  53.2172 139.5876 0001671  87.3450 272.7733 15.08839072105618,6917.883,95.438,540.904,538.592,0.0
52272.0,STARLINK-3781,PAYLOAD,2024-03-11 12:09:07,15.0885133,0.0001464,53.2164,138.1015,89.5269,270.5891,0.00011349,1.519e-05,0.0,0 STARLINK-3781,1 52272U 22041M   24071.50633512  .00001519  00000-0  11349-3 0  9993,2 52272  53.2164 138.1015 0001464  89.5269 270.5891 15.08851330105668,6917.846,95.437,540.724,538.698,0.0
52272.0,STARLINK-3781,PAYLOAD,2024-03-12 04:02:59,15.08837053,0.0001661,53.2183,135.128,82.4367,277.6814,0.00011324,1.514e-05,0.0,0 STARLINK-3781,1 52272U 22041M   24072.16874416  .00001514  00000-0  11324-3 0  9994,2 52272  53.2183 135.1280 0001661  82.4367 277.6814 15.08837053105760,6917.889,95.438,540.903,538.605,0.0
52272.0,STARLINK-3781,PAYLOAD,2024-03-12 10:24:31,15.08840837,0.0001458,53.2164,133.939,89.8076,270.3083,5.2849e-05,5.53e-06,0.0,0 STARLINK-3781,1 52272U 22041M   24072.43370289  .00000553  00000-0  52849-4 0  9993,2 52272  53.2164 133.9390 0001458  89.8076 270.3083 15.08840837104579,6917.878,95.438,540.751,538.734,0.0
52272.0,STARLINK-3781,PAYLOAD,2024-03-13 10:15:19,15.08841172,0.0001295,53.2172,129.4794,85.2478,274.8663,4.0795e-07,-2.81e-06,0.0,0 STARLINK-3781,1 52272U 22041M   24073.42730326 -.00000281  00000-0  40795-6 0  9993,2 52272  53.2172 129.4794 0001295  85.2478 274.8663 15.08841172105950,6917.877,95.437,540.638,538.846,0.0
52272.0,STARLINK-3781,PAYLOAD,2024-03-14 06:55:19,15.08841784,0.0001433,53.2176,125.6139,86.1059,274.0097,6.2266e-05,7.03e-06,0.0,0 STARLINK-3781,1 52272U 22041M   24074.28841974  .00000703  00000-0  62266-4 0  9993,2 52272  53.2176 125.6139 0001433  86.1059 274.0097 15.08841784104854,6917.875,95.437,540.731,538.749,0.0
52272.0,STARLINK-3781,PAYLOAD,2024-03-14 10:06:05,15.08844244,0.0001494,53.2177,125.019,88.5418,271.5745,7.9939e-05,9.85e-06,0.0,0 STARLINK-3781,1 52272U 22041M   24074.42089747  .00000985  00000-0  79939-4 0  9998,2 52272  53.2177 125.0190 0001494  88.5418 271.5745 15.08844244104876,6917.867,95.437,540.766,538.699,0.0
52272.0,STARLINK-3781,PAYLOAD,2024-03-15 03:35:20,15.08836582,0.0001412,53.2168,121.7465,88.9899,271.1255,1.499e-05,-4.9e-07,0.0,0 STARLINK-3781,1 52272U 22041M   24075.14954464 -.00000049  00000-0  14990-4 0  9993,2 52272  53.2168 121.7465 0001412  88.9899 271.1255 15.08836582106219,6917.891,95.438,540.733,538.779,0.0
52272.0,STARLINK-3781,PAYLOAD,2024-03-15 08:21:30,15.08837463,0.0001442,53.2167,120.8538,98.4148,261.7007,1.2987e-05,-8.1e-07,0.0,0 STARLINK-3781,1 52272U 22041M   24075.34826460 -.00000081  00000-0  12987-4 0  9999,2 52272  53.2167 120.8538 0001442  98.4148 261.7007 15.08837463105011,6917.888,95.438,540.751,538.756,0.0
52272.0,STARLINK-3781,PAYLOAD,2024-03-16 11:23:03,15.08835249,0.0001391,53.2166,115.8015,94.2417,265.8734,-3.0679e-05,-7.76e-06,0.0,0 STARLINK-3781,1 52272U 22041M   24076.47435151 -.00000776  00000-0 -30679-4 0  9997,2 52272  53.2166 115.8015 0001391  94.2417 265.8734 15.08835249106417,6917.895,95.438,540.722,538.798,0.0
52272.0,STARLINK-3781,PAYLOAD,2024-03-17 09:38:27,15.08839576,0.0001366,53.2162,111.6367,92.7995,267.3154,0.0001122,1.498e-05,0.0,0 STARLINK-3781,1 52272U 22041M   24077.40170678  .00001498  00000-0  11220-3 0  9991,2 52272  53.2162 111.6367 0001366  92.7995 267.3154 15.08839576106558,6917.882,95.438,540.692,538.802,0.0
52272.0,STARLINK-3781,PAYLOAD,2024-03-18 09:29:14,15.08842937,0.0001435,53.2166,107.1763,87.2257,272.8899,0.00010788,1.43e-05,0.0,0 STARLINK-3781,1 52272U 22041M   24078.39530612  .00001430  00000-0  10788-3 0  9992,2 52272  53.2166 107.1763 0001435  87.2257 272.8899 15.08842937105471,6917.871,95.437,540.729,538.744,0.0
52272.0,STARLINK-3781,PAYLOAD,2024-03-19 10:55:24,15.08847456,0.0001709,53.2164,102.4178,76.0986,284.0197,6.2658e-05,7.09e-06,0.0,0 STARLINK-3781,1 52272U 22041M   24079.45514579  .00000709  00000-0  62658-4 0  9996,2 52272  53.2164 102.4178 0001709  76.0986 284.0197 15.08847456106867,6917.858,95.437,540.905,538.54,0.0
52272.0,STARLINK-3781,PAYLOAD,2024-03-20 06:00:04,15.08711451,0.0002508,53.2173,98.8453,79.6551,280.4723,0.0018985,0.0002995,0.0,0 STARLINK-3781,1 52272U 22041M   24080.25005638  .00029950  00000-0  18985-2 0  9998,2 52272  53.2173  98.8453 0002508  79.6551 280.4723 15.08711451106989,6918.273,95.446,541.873,538.403,0.0
52272.0,STARLINK-3781,PAYLOAD,2024-03-20 10:46:13,15.08791354,0.0001923,53.2179,97.9512,80.9593,279.1616,0.00089131,0.00013907,0.0,0 STARLINK-3781,1 52272U 22041M   24080.44876259  .00013907  00000-0  89131-3 0  9991,2 52272  53.2179  97.9512 0001923  80.9593 279.1616 15.08791354105785,6918.029,95.441,541.224,538.564,0.0
52272.0,STARLINK-3781,PAYLOAD,2024-03-20 17:07:44,15.08837423,9.13e-05,53.2179,96.7698,77.8545,282.255,-5.6794e-06,-3.78e-06,0.0,0 STARLINK-3781,1 52272U 22041M   24080.71370931 -.00000378  00000-0 -56794-5 0  9998,2 52272  53.2179  96.7698 0000913  77.8545 282.2550 15.08837423107059,6917.888,95.438,540.385,539.122,0.0
52272.0,STARLINK-3781,PAYLOAD,2024-03-20 21:53:54,15.08832101,0.0001376,53.2176,95.873,87.8371,272.2778,-9.6422e-05,-1.822e-05,0.0,0 STARLINK-3781,1 52272U 22041M   24080.91243663 -.00001822  00000-0 -96422-4 0  9997,2 52272  53.2176  95.8730 0001376  87.8371 272.2778 15.08832101105850,6917.905,95.438,540.721,538.818,0.0
